[{"OBJECT_NAME":"STARLINK-5178","OBJECT_ID":"2022-136AJ","EPOCH":"2026-03-09T21:24:11.785248","MEAN_MOTION":15.08820493,"ECCENTRICITY":0.00013148,"INCLINATION":53.2196,"RA_OF_ASC_NODE":333.2792,"ARG_OF_PERICENTER":100.0853,"MEAN_ANOMALY":260.0288,"EPHEMERIS_TYPE":0,"CLASSIFICATION_TYPE":"U","NORAD_CAT_ID":54083,"ELEMENT_SET_NO":999,"REV_AT_EPOCH":18701,"BSTAR":-0.00011921465,"MEAN_MOTION_DOT":-2.184e-5,"MEAN_MOTION_DDOT":0},{"OBJECT_NAME":"DISKSAT A","OBJECT_ID":"2025-305D","EPOCH":"2026-03-09T13:08:58.223040","MEAN_MOTION":15.07741062,"ECCENTRICITY":0.0004082,"INCLINATION":45.0023,"RA_OF_ASC_NODE":251.6019,"ARG_OF_PERICENTER":318.1929,"MEAN_ANOMALY":41.8634,"EPHEMERIS_TYPE":0,"CLASSIFICATION_TYPE":"U","NORAD_CAT_ID":67222,"ELEMENT_SET_NO":999,"REV_AT_EPOCH":1226,"BSTAR":0.00090452,"MEAN_MOTION_DOT":0.00013824,"MEAN_MOTION_DDOT":0}]
